25478,ORBCOMM FM24,1998,100.18,-1.0,-,45.01,Inactive,0,LEO,Eastern Range Airspace,ORBCOMM,Unknown,Unknown,Unknown,1 25478U 98053D   25018.84852058  .00002103  00000+0  74460-3 0  9996,2 25478  45.0065 256.8394 0001323 174.6699 185.4163 14.37388622375957,14.37388622,0.0001323,LEO
25479,ORBCOMM FM25,1998,100.18,-1.0,-,45.01,Inactive,0,LEO,Eastern Range Airspace,ORBCOMM,Unknown,Unknown,Unknown,1 25479U 98053E   25019.09557552  .00002035  00000+0  72216-3 0  9997,2 25479  45.0055 253.9251 0003509 209.4875 150.5775 14.37377844376281,14.37377844,0.0003509,LEO
25480,ORBCOMM FM26,1998,100.24,-1.0,-,45.01,Inactive,0,LEO,Eastern Range Airspace,ORBCOMM,Unknown,Unknown,Unknown,1 25480U 98053F   25019.08356360  .00001624  00000+0  59554-3 0  9995,2 25480  45.0059 249.4185 0005285 235.4744 124.5605 14.36542881376300,14.36542881,0.0005285,LEO
25482,ORBCOMM FM28,1998,100.16,-1.0,-,45.0,Inactive,0,LEO,Eastern Range Airspace,ORBCOMM,Unknown,Unknown,Unknown,1 25482U 98053H   25018.86828292  .00002437  00000+0  85052-3 0  9995,2 25482  45.0035 193.0026 0004168 251.5874 108.4521 14.37647566376862,14.37647566,0.0004168,LEO
25980,ORBCOMM FM30,1999,100.23,45.0,-,45.03,Inactive,1,LEO,Eastern Range Airspace,ORBCOMM,Commercial,Communications,Pegasus,1 25980U 99065A   25018.53373258  .00001939  00000+0  69980-3 0  9991,2 25980  45.0322  77.7841 0007014 319.8661  40.1668 14.36691591313458,14.36691591,0.0007014,LEO
25981,ORBCOMM FM31,1999,100.23,45.0,-,45.02,Inactive,1,LEO,Eastern Range Airspace,ORBCOMM,Commercial,Communications,Pegasus,1 25981U 99065B   25019.12814213  .00001867  00000+0  67593-3 0  9997,2 25981  45.0237  68.5171 0003842 331.8264  28.2375 14.36664245313533,14.36664245,0.0003842,LEO
25481,ORBCOMM FM27,1998,100.18,45.0,+,45.0,Active,1,LEO,Eastern Range Airspace,ORBCOMM,Commercial,Communications,Pegasus,1 25481U 98053G   25018.87661261  .00002192  00000+0  77421-3 0  9995,2 25481  45.0038 255.2067 0000558  81.2537 278.8374 14.37382496376184,14.37382496,5.58e-05,LEO
25982,ORBCOMM FM32,1999,100.3,45.0,+,45.02,Active,1,LEO,Eastern Range Airspace,ORBCOMM,Commercial,Communications,Pegasus,1 25982U 99065C   25019.21409327  .00002266  00000+0  82587-3 0  9998,2 25982  45.0151  83.6809 0005344 341.4597  18.6055 14.35699331313317,14.35699331,0.0005344,LEO
