<?xml version="1.0" encoding="UTF-8"?>
<ndm xmlns:xsi="http://www.w3.org/2001/XMLSchema-instance" xsi:noNamespaceSchemaLocation="https://sanaregistry.org/r/ndmxml_unqualified/ndmxml-2.0.0-master-2.0.xsd">
<omm id="CCSDS_OMM_VERS" version="2.0">
<header><CREATION_DATE/><ORIGINATOR/></header><body><segment><metadata><OBJECT_NAME>ORBCOMM FM24</OBJECT_NAME><OBJECT_ID>1998-053D</OBJECT_ID><CENTER_NAME>EARTH</CENTER_NAME><REF_FRAME>TEME</REF_FRAME><TIME_SYSTEM>UTC</TIME_SYSTEM><MEAN_ELEMENT_THEORY>SGP4</MEAN_ELEMENT_THEORY></metadata><data><meanElements><EPOCH>2025-01-18T20:21:52.178112</EPOCH><MEAN_MOTION>14.37388622</MEAN_MOTION><ECCENTRICITY>.0001323</ECCENTRICITY><INCLINATION>45.0065</INCLINATION><RA_OF_ASC_NODE>256.8394</RA_OF_ASC_NODE><ARG_OF_PERICENTER>174.6699</ARG_OF_PERICENTER><MEAN_ANOMALY>185.4163</MEAN_ANOMALY></meanElements><tleParameters><EPHEMERIS_TYPE>0</EPHEMERIS_TYPE><CLASSIFICATION_TYPE>U</CLASSIFICATION_TYPE><NORAD_CAT_ID>25478</NORAD_CAT_ID><ELEMENT_SET_NO>999</ELEMENT_SET_NO><REV_AT_EPOCH>37595</REV_AT_EPOCH><BSTAR>.7446E-3</BSTAR><MEAN_MOTION_DOT>.2103E-4</MEAN_MOTION_DOT><MEAN_MOTION_DDOT>0</MEAN_MOTION_DDOT></tleParameters></data></segment></body></omm>
<omm id="CCSDS_OMM_VERS" version="2.0">
<header><CREATION_DATE/><ORIGINATOR/></header><body><segment><metadata><OBJECT_NAME>ORBCOMM FM25</OBJECT_NAME><OBJECT_ID>1998-053E</OBJECT_ID><CENTER_NAME>EARTH</CENTER_NAME><REF_FRAME>TEME</REF_FRAME><TIME_SYSTEM>UTC</TIME_SYSTEM><MEAN_ELEMENT_THEORY>SGP4</MEAN_ELEMENT_THEORY></metadata><data><meanElements><EPOCH>2025-01-19T02:17:37.724928</EPOCH><MEAN_MOTION>14.37377844</MEAN_MOTION><ECCENTRICITY>.0003509</ECCENTRICITY><INCLINATION>45.0055</INCLINATION><RA_OF_ASC_NODE>253.9251</RA_OF_ASC_NODE><ARG_OF_PERICENTER>209.4875</ARG_OF_PERICENTER><MEAN_ANOMALY>150.5775</MEAN_ANOMALY></meanElements><tleParameters><EPHEMERIS_TYPE>0</EPHEMERIS_TYPE><CLASSIFICATION_TYPE>U</CLASSIFICATION_TYPE><NORAD_CAT_ID>25479</NORAD_CAT_ID><ELEMENT_SET_NO>999</ELEMENT_SET_NO><REV_AT_EPOCH>37628</REV_AT_EPOCH><BSTAR>.72216E-3</BSTAR><MEAN_MOTION_DOT>.2035E-4</MEAN_MOTION_DOT><MEAN_MOTION_DDOT>0</MEAN_MOTION_DDOT></tleParameters></data></segment></body></omm>
<omm id="CCSDS_OMM_VERS" version="2.0">
<header><CREATION_DATE/><ORIGINATOR/></header><body><segment><metadata><OBJECT_NAME>ORBCOMM FM26</OBJECT_NAME><OBJECT_ID>1998-053F</OBJECT_ID><CENTER_NAME>EARTH</CENTER_NAME><REF_FRAME>TEME</REF_FRAME><TIME_SYSTEM>UTC</TIME_SYSTEM><MEAN_ELEMENT_THEORY>SGP4</MEAN_ELEMENT_THEORY></metadata><data><meanElements><EPOCH>2025-01-19T02:00:19.895040</EPOCH><MEAN_MOTION>14.36542881</MEAN_MOTION><ECCENTRICITY>.0005285</ECCENTRICITY><INCLINATION>45.0059</INCLINATION><RA_OF_ASC_NODE>249.4185</RA_OF_ASC_NODE><ARG_OF_PERICENTER>235.4744</ARG_OF_PERICENTER><MEAN_ANOMALY>124.5605</MEAN_ANOMALY></meanElements><tleParameters><EPHEMERIS_TYPE>0</EPHEMERIS_TYPE><CLASSIFICATION_TYPE>U</CLASSIFICATION_TYPE><NORAD_CAT_ID>25480</NORAD_CAT_ID><ELEMENT_SET_NO>999</ELEMENT_SET_NO><REV_AT_EPOCH>37630</REV_AT_EPOCH><BSTAR>.59554E-3</BSTAR><MEAN_MOTION_DOT>.1624E-4</MEAN_MOTION_DOT><MEAN_MOTION_DDOT>0</MEAN_MOTION_DDOT></tleParameters></data></segment></body></omm>
<omm id="CCSDS_OMM_VERS" version="2.0">
<header><CREATION_DATE/><ORIGINATOR/></header><body><segment><metadata><OBJECT_NAME>ORBCOMM FM27</OBJECT_NAME><OBJECT_ID>1998-053G</OBJECT_ID><CENTER_NAME>EARTH</CENTER_NAME><REF_FRAME>TEME</REF_FRAME><TIME_SYSTEM>UTC</TIME_SYSTEM><MEAN_ELEMENT_THEORY>SGP4</MEAN_ELEMENT_THEORY></metadata><data><meanElements><EPOCH>2025-01-18T21:02:19.329504</EPOCH><MEAN_MOTION>14.37382496</MEAN_MOTION><ECCENTRICITY>.0000558</ECCENTRICITY><INCLINATION>45.0038</INCLINATION><RA_OF_ASC_NODE>255.2067</RA_OF_ASC_NODE><ARG_OF_PERICENTER>81.2537</ARG_OF_PERICENTER><MEAN_ANOMALY>278.8374</MEAN_ANOMALY></meanElements><tleParameters><EPHEMERIS_TYPE>0</EPHEMERIS_TYPE><CLASSIFICATION_TYPE>U</CLASSIFICATION_TYPE><NORAD_CAT_ID>25481</NORAD_CAT_ID><ELEMENT_SET_NO>999</ELEMENT_SET_NO><REV_AT_EPOCH>37618</REV_AT_EPOCH><BSTAR>.77421E-3</BSTAR><MEAN_MOTION_DOT>.2192E-4</MEAN_MOTION_DOT><MEAN_MOTION_DDOT>0</MEAN_MOTION_DDOT></tleParameters></data></segment></body></omm>
<omm id="CCSDS_OMM_VERS" version="2.0">
<header><CREATION_DATE/><ORIGINATOR/></header><body><segment><metadata><OBJECT_NAME>ORBCOMM FM28</OBJECT_NAME><OBJECT_ID>1998-053H</OBJECT_ID><CENTER_NAME>EARTH</CENTER_NAME><REF_FRAME>TEME</REF_FRAME><TIME_SYSTEM>UTC</TIME_SYSTEM><MEAN_ELEMENT_THEORY>SGP4</MEAN_ELEMENT_THEORY></metadata><data><meanElements><EPOCH>2025-01-18T20:50:19.644288</EPOCH><MEAN_MOTION>14.37647566</MEAN_MOTION><ECCENTRICITY>.0004168</ECCENTRICITY><INCLINATION>45.0035</INCLINATION><RA_OF_ASC_NODE>193.0026</RA_OF_ASC_NODE><ARG_OF_PERICENTER>251.5874</ARG_OF_PERICENTER><MEAN_ANOMALY>108.4521</MEAN_ANOMALY></meanElements><tleParameters><EPHEMERIS_TYPE>0</EPHEMERIS_TYPE><CLASSIFICATION_TYPE>U</CLASSIFICATION_TYPE><NORAD_CAT_ID>25482</NORAD_CAT_ID><ELEMENT_SET_NO>999</ELEMENT_SET_NO><REV_AT_EPOCH>37686</REV_AT_EPOCH><BSTAR>.85052E-3</BSTAR><MEAN_MOTION_DOT>.2437E-4</MEAN_MOTION_DOT><MEAN_MOTION_DDOT>0</MEAN_MOTION_DDOT></tleParameters></data></segment></body></omm>
<omm id="CCSDS_OMM_VERS" version="2.0">
<header><CREATION_DATE/><ORIGINATOR/></header><body><segment><metadata><OBJECT_NAME>ORBCOMM FM30</OBJECT_NAME><OBJECT_ID>1999-065A</OBJECT_ID><CENTER_NAME>EARTH</CENTER_NAME><REF_FRAME>TEME</REF_FRAME><TIME_SYSTEM>UTC</TIME_SYSTEM><MEAN_ELEMENT_THEORY>SGP4</MEAN_ELEMENT_THEORY></metadata><data><meanElements><EPOCH>2025-01-18T12:48:34.494912</EPOCH><MEAN_MOTION>14.36691591</MEAN_MOTION><ECCENTRICITY>.0007014</ECCENTRICITY><INCLINATION>45.0322</INCLINATION><RA_OF_ASC_NODE>77.7841</RA_OF_ASC_NODE><ARG_OF_PERICENTER>319.8661</ARG_OF_PERICENTER><MEAN_ANOMALY>40.1668</MEAN_ANOMALY></meanElements><tleParameters><EPHEMERIS_TYPE>0</EPHEMERIS_TYPE><CLASSIFICATION_TYPE>U</CLASSIFICATION_TYPE><NORAD_CAT_ID>25980</NORAD_CAT_ID><ELEMENT_SET_NO>999</ELEMENT_SET_NO><REV_AT_EPOCH>31345</REV_AT_EPOCH><BSTAR>.6998E-3</BSTAR><MEAN_MOTION_DOT>.1939E-4</MEAN_MOTION_DOT><MEAN_MOTION_DDOT>0</MEAN_MOTION_DDOT></tleParameters></data></segment></body></omm>
<omm id="CCSDS_OMM_VERS" version="2.0">
<header><CREATION_DATE/><ORIGINATOR/></header><body><segment><metadata><OBJECT_NAME>ORBCOMM FM31</OBJECT_NAME><OBJECT_ID>1999-065B</OBJECT_ID><CENTER_NAME>EARTH</CENTER_NAME><REF_FRAME>TEME</REF_FRAME><TIME_SYSTEM>UTC</TIME_SYSTEM><MEAN_ELEMENT_THEORY>SGP4</MEAN_ELEMENT_THEORY></metadata><data><meanElements><EPOCH>2025-01-19T03:04:31.480032</EPOCH><MEAN_MOTION>14.36664245</MEAN_MOTION><ECCENTRICITY>.0003842</ECCENTRICITY><INCLINATION>45.0237</INCLINATION><RA_OF_ASC_NODE>68.5171</RA_OF_ASC_NODE><ARG_OF_PERICENTER>331.8264</ARG_OF_PERICENTER><MEAN_ANOMALY>28.2375</MEAN_ANOMALY></meanElements><tleParameters><EPHEMERIS_TYPE>0</EPHEMERIS_TYPE><CLASSIFICATION_TYPE>U</CLASSIFICATION_TYPE><NORAD_CAT_ID>25981</NORAD_CAT_ID><ELEMENT_SET_NO>999</ELEMENT_SET_NO><REV_AT_EPOCH>31353</REV_AT_EPOCH><BSTAR>.67593E-3</BSTAR><MEAN_MOTION_DOT>.1867E-4</MEAN_MOTION_DOT><MEAN_MOTION_DDOT>0</MEAN_MOTION_DDOT></tleParameters></data></segment></body></omm>
<omm id="CCSDS_OMM_VERS" version="2.0">
<header><CREATION_DATE/><ORIGINATOR/></header><body><segment><metadata><OBJECT_NAME>ORBCOMM FM32</OBJECT_NAME><OBJECT_ID>1999-065C</OBJECT_ID><CENTER_NAME>EARTH</CENTER_NAME><REF_FRAME>TEME</REF_FRAME><TIME_SYSTEM>UTC</TIME_SYSTEM><MEAN_ELEMENT_THEORY>SGP4</MEAN_ELEMENT_THEORY></metadata><data><meanElements><EPOCH>2025-01-19T05:08:17.658528</EPOCH><MEAN_MOTION>14.35699331</MEAN_MOTION><ECCENTRICITY>.0005344</ECCENTRICITY><INCLINATION>45.0151</INCLINATION><RA_OF_ASC_NODE>83.6809</RA_OF_ASC_NODE><ARG_OF_PERICENTER>341.4597</ARG_OF_PERICENTER><MEAN_ANOMALY>18.6055</MEAN_ANOMALY></meanElements><tleParameters><EPHEMERIS_TYPE>0</EPHEMERIS_TYPE><CLASSIFICATION_TYPE>U</CLASSIFICATION_TYPE><NORAD_CAT_ID>25982</NORAD_CAT_ID><ELEMENT_SET_NO>999</ELEMENT_SET_NO><REV_AT_EPOCH>31331</REV_AT_EPOCH><BSTAR>.82587E-3</BSTAR><MEAN_MOTION_DOT>.2266E-4</MEAN_MOTION_DOT><MEAN_MOTION_DDOT>0</MEAN_MOTION_DDOT></tleParameters></data></segment></body></omm>

</ndm>
